*******************************************************************************
Ephemeris / WWW_USER Fri Mar  7 09:56:19 2025 Pasadena, USA      / Horizons    
*******************************************************************************
Target body name: 358P/PANSTARRS                  {source: JPL#33}
Center body name: Earth (399)                     {source: DE441}
Center-site name: Mauna Kea
*******************************************************************************
Start time      : A.D. 2019-Jan-27 04:20:00.0000 UT      
Stop  time      : A.D. 2019-Jan-27 16:48:00.0000 UT      
Step-size       : 1 minutes
*******************************************************************************
Target pole/equ : undefined
Target radii    : undefined                                                    
Center geodetic : 204.5278, 19.8260847, 4.21024   {E-lon(deg),Lat(deg),Alt(km)}
Center cylindric: 204.5278, 6006.35451, 2151.0229 {E-lon(deg),Dxy(km),Dz(km)}
Center pole/equ : ITRF93                          {East-longitude positive}
Center radii    : 6378.137, 6378.137, 6356.752 km {Equator_a, b, pole_c}       
Target primary  : Sun
Vis. interferer : MOON (R_eq= 1737.400) km        {source: DE441}
Rel. light bend : Sun                             {source: DE441}
Rel. lght bnd GM: 1.3271E+11 km^3/s^2                                          
Small-body perts: Yes                             {source: SB441-N16}
Atmos refraction: NO (AIRLESS)
RA format       : HMS
Time format     : CAL 
Calendar mode   : Mixed Julian/Gregorian
RTS-only print  : NO       
EOP file        : eop.250306.p250602                                           
EOP coverage    : DATA-BASED 1962-JAN-20 TO 2025-MAR-06. PREDICTS-> 2025-JUN-01
Units conversion: 1 au= 149597870.700 km, c= 299792.458 km/s, 1 day= 86400.0 s 
Table cut-offs 1: Elevation (-90.0deg=NO ),Airmass (>38.000=NO), Daylight (YES)
Table cut-offs 2: Solar elongation (  0.0,180.0=NO ),Local Hour Angle( 0.0=NO )
Table cut-offs 3: RA/DEC angular rate (     0.0=NO )                           
*******************************************************************************
Initial IAU76/J2000 heliocentric ecliptic osculating elements (au, days, deg.):
  EPOCH=  2459793.5 ! 2022-Aug-02.0000000 (TDB)    RMSW= n.a.                  
   EC= .2388922136090974   QR= 2.394903345037887   TP= 2460259.6862889272      
   OM= 85.70246509974154   W= 299.7728624007243    IN= 11.06025031481611       
  Equivalent ICRF heliocentric cartesian coordinates (au, au/d):
   X= 3.243054425204740E-01  Y=-2.897679241187805E+00  Z=-1.376383147061824E+00
  VX= 8.746409534656921E-03 VY= 3.598394346577952E-03 VZ=-2.469697424538527E-04
Comet physical (GM= km^3/s^2; RAD= km):                                        
   GM= n.a.                RAD= n.a.                                           
   M1=  7.8      M2=  17.2     k1=  30.    k2=  5.      PHCOF=  .030           
Comet non-gravitational force model (AMRAT=m^2/kg;A1-A3=au/d^2;DT=days;R0=au): 
   AMRAT=  0.                                      DT=  0.                     
   A1= 0.                  A2= -2.303385920823E-10 A3= 0.                      
 Standard model:                                                               
   ALN=  .1112620426   NK=  4.6142   NM=  2.15     NN=  5.093    R0=  2.808    
*******************************************************************************
 Date__(UT)__HR:MN     R.A._________(ICRF)_________DEC
******************************************************
$$SOE
 2019-Jan-27 10:11  m  05 57 33.203512 +27 51 15.58775
 2019-Jan-27 10:12  m  05 57 33.183936 +27 51 15.67269
 2019-Jan-27 10:13  m  05 57 33.164365 +27 51 15.75760
 2019-Jan-27 10:14  m  05 57 33.144798 +27 51 15.84247
 2019-Jan-27 10:15  m  05 57 33.125235 +27 51 15.92732
 2019-Jan-27 10:16  m  05 57 33.105676 +27 51 16.01213
 2019-Jan-27 10:17  m  05 57 33.086121 +27 51 16.09691
 2019-Jan-27 10:18  m  05 57 33.066571 +27 51 16.18166
 2019-Jan-27 10:19  m  05 57 33.047026 +27 51 16.26637
 2019-Jan-27 10:20  m  05 57 33.027484 +27 51 16.35105
 2019-Jan-27 10:21  m  05 57 33.007947 +27 51 16.43571
 2019-Jan-27 10:22  m  05 57 32.988415 +27 51 16.52033
 2019-Jan-27 10:23  m  05 57 32.968887 +27 51 16.60491
 2019-Jan-27 10:24  m  05 57 32.949363 +27 51 16.68947
 2019-Jan-27 10:25  m  05 57 32.929844 +27 51 16.77399
 2019-Jan-27 10:26  m  05 57 32.910329 +27 51 16.85849
 2019-Jan-27 10:27  m  05 57 32.890819 +27 51 16.94295
 2019-Jan-27 10:28  m  05 57 32.871314 +27 51 17.02738
 2019-Jan-27 10:29  m  05 57 32.851813 +27 51 17.11178
 2019-Jan-27 10:30  m  05 57 32.832316 +27 51 17.19615
 2019-Jan-27 10:31  m  05 57 32.812824 +27 51 17.28049
 2019-Jan-27 10:32  m  05 57 32.793337 +27 51 17.36480
 2019-Jan-27 10:33  m  05 57 32.773855 +27 51 17.44907
 2019-Jan-27 10:34  m  05 57 32.754377 +27 51 17.53332
 2019-Jan-27 10:35  m  05 57 32.734904 +27 51 17.61753
 2019-Jan-27 10:36  m  05 57 32.715435 +27 51 17.70172
 2019-Jan-27 10:37  m  05 57 32.695972 +27 51 17.78587
 2019-Jan-27 10:38  m  05 57 32.676513 +27 51 17.87000
 2019-Jan-27 10:39  m  05 57 32.657059 +27 51 17.95409
 2019-Jan-27 10:40  m  05 57 32.637609 +27 51 18.03816
 2019-Jan-27 10:41  m  05 57 32.618165 +27 51 18.12219
 2019-Jan-27 10:42  m  05 57 32.598725 +27 51 18.20620
 2019-Jan-27 10:43  m  05 57 32.579290 +27 51 18.29017
 2019-Jan-27 10:44  m  05 57 32.559860 +27 51 18.37412
 2019-Jan-27 10:45  m  05 57 32.540435 +27 51 18.45804
 2019-Jan-27 10:46  m  05 57 32.521015 +27 51 18.54193
 2019-Jan-27 10:47  m  05 57 32.501599 +27 51 18.62578
 2019-Jan-27 10:48  m  05 57 32.482189 +27 51 18.70961
 2019-Jan-27 10:49  m  05 57 32.462784 +27 51 18.79341
 2019-Jan-27 10:50  m  05 57 32.443383 +27 51 18.87719
 2019-Jan-27 10:51  m  05 57 32.423988 +27 51 18.96093
 2019-Jan-27 10:52  m  05 57 32.404598 +27 51 19.04464
 2019-Jan-27 10:53  m  05 57 32.385212 +27 51 19.12833
 2019-Jan-27 10:54  m  05 57 32.365832 +27 51 19.21199
 2019-Jan-27 10:55  m  05 57 32.346457 +27 51 19.29562
 2019-Jan-27 10:56  m  05 57 32.327087 +27 51 19.37922
 2019-Jan-27 10:57  m  05 57 32.307722 +27 51 19.46279
 2019-Jan-27 10:58  m  05 57 32.288362 +27 51 19.54634
 2019-Jan-27 10:59  m  05 57 32.269008 +27 51 19.62985
 2019-Jan-27 11:00  m  05 57 32.249658 +27 51 19.71334
 2019-Jan-27 11:01  m  05 57 32.230314 +27 51 19.79681
 2019-Jan-27 11:02  m  05 57 32.210975 +27 51 19.88024
 2019-Jan-27 11:03  m  05 57 32.191641 +27 51 19.96365
 2019-Jan-27 11:04  m  05 57 32.172313 +27 51 20.04703
 2019-Jan-27 11:05  m  05 57 32.152989 +27 51 20.13038
 2019-Jan-27 11:06  m  05 57 32.133671 +27 51 20.21371
 2019-Jan-27 11:07  m  05 57 32.114359 +27 51 20.29701
 2019-Jan-27 11:08  m  05 57 32.095051 +27 51 20.38028
 2019-Jan-27 11:09  m  05 57 32.075749 +27 51 20.46353
 2019-Jan-27 11:10  m  05 57 32.056452 +27 51 20.54675
 2019-Jan-27 11:11  m  05 57 32.037161 +27 51 20.62995
 2019-Jan-27 11:12  m  05 57 32.017875 +27 51 20.71311
 2019-Jan-27 11:13  m  05 57 31.998595 +27 51 20.79626
 2019-Jan-27 11:14  m  05 57 31.979320 +27 51 20.87937
 2019-Jan-27 11:15  m  05 57 31.960050 +27 51 20.96246
 2019-Jan-27 11:16  m  05 57 31.940786 +27 51 21.04553
 2019-Jan-27 11:17  m  05 57 31.921527 +27 51 21.12857
 2019-Jan-27 11:18  m  05 57 31.902274 +27 51 21.21158
 2019-Jan-27 11:19  m  05 57 31.883026 +27 51 21.29457
 2019-Jan-27 11:20  m  05 57 31.863784 +27 51 21.37753
 2019-Jan-27 11:21  m  05 57 31.844547 +27 51 21.46047
 2019-Jan-27 11:22  m  05 57 31.825316 +27 51 21.54338
 2019-Jan-27 11:23  m  05 57 31.806091 +27 51 21.62627
 2019-Jan-27 11:24  m  05 57 31.786871 +27 51 21.70913
 2019-Jan-27 11:25  m  05 57 31.767657 +27 51 21.79197
 2019-Jan-27 11:26  m  05 57 31.748448 +27 51 21.87479
 2019-Jan-27 11:27  m  05 57 31.729245 +27 51 21.95758
 2019-Jan-27 11:28  m  05 57 31.710048 +27 51 22.04034
 2019-Jan-27 11:29  m  05 57 31.690856 +27 51 22.12309
 2019-Jan-27 11:30  m  05 57 31.671670 +27 51 22.20581
 2019-Jan-27 11:31  m  05 57 31.652490 +27 51 22.28850
 2019-Jan-27 11:32  m  05 57 31.633315 +27 51 22.37117
 2019-Jan-27 11:33  m  05 57 31.614146 +27 51 22.45382
 2019-Jan-27 11:34  m  05 57 31.594983 +27 51 22.53644
 2019-Jan-27 11:35  m  05 57 31.575826 +27 51 22.61905
 2019-Jan-27 11:36  m  05 57 31.556674 +27 51 22.70162
 2019-Jan-27 11:37  m  05 57 31.537529 +27 51 22.78418
 2019-Jan-27 11:38  m  05 57 31.518389 +27 51 22.86671
 2019-Jan-27 11:39  m  05 57 31.499254 +27 51 22.94922
 2019-Jan-27 11:40  m  05 57 31.480126 +27 51 23.03171
 2019-Jan-27 11:41  m  05 57 31.461004 +27 51 23.11418
 2019-Jan-27 11:42  m  05 57 31.441887 +27 51 23.19662
 2019-Jan-27 11:43  m  05 57 31.422777 +27 51 23.27904
 2019-Jan-27 11:44  m  05 57 31.403672 +27 51 23.36144
 2019-Jan-27 11:45  m  05 57 31.384573 +27 51 23.44382
 2019-Jan-27 11:46  m  05 57 31.365480 +27 51 23.52617
 2019-Jan-27 11:47  m  05 57 31.346393 +27 51 23.60850
 2019-Jan-27 11:48  m  05 57 31.327312 +27 51 23.69082
 2019-Jan-27 11:49  m  05 57 31.308237 +27 51 23.77311
 2019-Jan-27 11:50  m  05 57 31.289168 +27 51 23.85538
 2019-Jan-27 11:51  m  05 57 31.270105 +27 51 23.93763
 2019-Jan-27 11:52  m  05 57 31.251048 +27 51 24.01986
 2019-Jan-27 11:53  m  05 57 31.231997 +27 51 24.10206
 2019-Jan-27 11:54  m  05 57 31.212952 +27 51 24.18425
 2019-Jan-27 11:55  m  05 57 31.193913 +27 51 24.26642
 2019-Jan-27 11:56  m  05 57 31.174880 +27 51 24.34856
 2019-Jan-27 11:57  m  05 57 31.155853 +27 51 24.43069
 2019-Jan-27 11:58  m  05 57 31.136832 +27 51 24.51280
 2019-Jan-27 11:59  m  05 57 31.117818 +27 51 24.59488
 2019-Jan-27 12:00  m  05 57 31.098809 +27 51 24.67695
 2019-Jan-27 12:01  m  05 57 31.079807 +27 51 24.75900
 2019-Jan-27 12:02  m  05 57 31.060811 +27 51 24.84103
 2019-Jan-27 12:03  m  05 57 31.041821 +27 51 24.92303
 2019-Jan-27 12:04  m  05 57 31.022837 +27 51 25.00502
 2019-Jan-27 12:05  m  05 57 31.003859 +27 51 25.08700
 2019-Jan-27 12:06  m  05 57 30.984887 +27 51 25.16895
 2019-Jan-27 12:07  m  05 57 30.965922 +27 51 25.25088
